H1 CPF 01  gfz 2022 07 14 00  6951 tandemx   
H2 1003001  6202 36605    2022 07 14 00 59 42 2022 07 19 00 00 42   120 1 1  0 0 0
H9
10 0 59774  36702.000000  0   -1977509.184   2022817.457  -6288093.547
10 0 59774  36822.000000  0   -2280198.108   2788021.767  -5879414.967
10 0 59774  36942.000000  0   -2530323.036   3509702.205  -5368023.718
10 0 59774  37062.000000  0   -2724383.664   4174331.164  -4762765.233
10 0 59774  37182.000000  0   -2860070.415   4769291.572  -4074137.214
10 0 59774  37302.000000  0   -2936291.216   5283121.685  -3314116.174
10 0 59774  37422.000000  0   -2953173.336   5705741.984  -2495956.914
10 0 59774  37542.000000  0   -2912041.635   6028662.748  -1633967.306
10 0 59774  37662.000000  0   -2815371.201   6245164.591   -743257.746
10 0 59774  37782.000000  0   -2666715.980   6350444.662    160526.071
10 0 59774  37902.000000  0   -2470616.736   6341730.288   1061483.187
10 0 59774  38022.000000  0   -2232485.996   6218350.680   1943748.937
10 0 59774  38142.000000  0   -1958473.990   5981762.797   2791784.308
10 0 59774  38262.000000  0   -1655321.296   5635534.857   3590656.980
10 0 59774  38382.000000  0   -1330201.819   5185288.431   4326309.574
10 0 59774  38502.000000  0    -990559.690   4638599.998   4985810.822
10 0 59774  38622.000000  0    -643942.100   4004863.718   5557583.370
10 0 59774  38742.000000  0    -297835.209   3295121.534   6031603.610
10 0 59774  38862.000000  0      40494.164   2521862.300   6399573.345
10 0 59774  38982.000000  0     364148.366   1698796.060   6655058.473
10 0 59774  39102.000000  0     666737.486    840607.153   6793596.127
10 0 59774  39222.000000  0     942503.764    -37309.566   6812766.806
10 0 59774  39342.000000  0    1186429.998   -919123.607   6712234.424
10 0 59774  39462.000000  0    1394330.510  -1788854.086   6493752.664
10 0 59774  39582.000000  0    1562923.259  -2630658.871   6161136.704
10 0 59774  39702.000000  0    1689881.903  -3429124.488   5720200.983
10 0 59774  39822.000000  0    1773866.590  -4169551.218   5178662.319
10 0 59774  39942.000000  0    1814533.688  -4838226.887   4546009.978
10 0 59774  40062.000000  0    1812524.983  -5422687.205   3833346.127
10 0 59774  40182.000000  0    1769435.406  -5911958.227   3053194.010
10 0 59774  40302.000000  0    1687758.432  -6296770.807   2219277.142
10 0 59774  40422.000000  0    1570812.670  -6569744.255   1346276.422
10 0 59774  40542.000000  0    1422650.388  -6725536.025    449567.431
10 0 59774  40662.000000  0    1247949.450  -6760951.884   -455057.406
10 0 59774  40782.000000  0    1051890.719  -6675014.017  -1351677.626
10 0 59774  40902.000000  0     840025.252  -6468979.948  -2224535.102
10 0 59774  41022.000000  0     618135.211  -6146316.827  -3058317.229
10 0 59774  41142.000000  0     392093.133  -5712633.591  -3838429.723
10 0 59774  41262.000000  0     167721.143  -5175571.416  -4551253.541
10 0 59774  41382.000000  0     -49346.122  -4544655.674  -5184379.320
10 0 59774  41502.000000  0    -253790.993  -3831115.517  -5726816.616
10 0 59774  41622.000000  0    -440732.117  -3047674.249  -6169175.492
10 0 59774  41742.000000  0    -605831.132  -2208315.963  -6503817.907
10 0 59774  41862.000000  0    -745385.189  -1328033.226  -6724977.992
10 0 59774  41982.000000  0    -856403.757   -422560.971  -6828851.457
10 0 59774  42102.000000  0    -936668.376    491900.867  -6813653.888
10 0 59774  42222.000000  0    -984774.768   1398970.084  -6679646.852
10 0 59774  42342.000000  0   -1000156.961   2282368.044  -6429133.846
10 0 59774  42462.000000  0    -983092.901   3126204.464  -6066425.585
10 0 59774  42582.000000  0    -934691.545   3915259.672  -5597774.996
10 0 59774  42702.000000  0    -856861.409   4635258.253  -5031279.636
10 0 59774  42822.000000  0    -752261.179   5273130.508  -4376753.687
10 0 59774  42942.000000  0    -624233.272   5817257.012  -3645568.182
10 0 59774  43062.000000  0    -476720.866   6257689.706  -2850461.603
10 0 59774  43182.000000  0    -314169.957   6586345.461  -2005324.040
10 0 59774  43302.000000  0    -141418.777   6797167.254  -1124956.517
10 0 59774  43422.000000  0      36423.252   6886247.707   -224810.134
10 0 59774  43542.000000  0     214104.493   6851911.429    679290.127
10 0 59774  43662.000000  0     386364.415   6694753.248   1571431.766
10 0 59774  43782.000000  0     548067.008   6417629.434   2435904.482
10 0 59774  43902.000000  0     694330.442   6025602.635   3257484.538
10 0 59774  44022.000000  0     820650.712   5525844.536   4021709.334
10 0 59774  44142.000000  0     923018.279   4927498.877   4715137.074
10 0 59774  44262.000000  0     998019.979   4241501.615   5325589.010
10 0 59774  44382.000000  0    1042927.222   3480369.108   5842358.176
10 0 59774  44502.000000  0    1055769.108   2657962.493   6256393.041
10 0 59774  44622.000000  0    1035386.328   1789228.411   6560450.990
10 0 59774  44742.000000  0     981466.714    889922.603   6749219.282
10 0 59774  44862.000000  0     894561.634    -23678.135   6819401.414
10 0 59774  44982.000000  0     776082.832   -935069.206   6769771.388
10 0 59774  45102.000000  0     628279.426  -1827816.350   6601195.059
10 0 59774  45222.000000  0     454195.361  -2685851.824   6316616.216
10 0 59774  45342.000000  0     257608.057  -3493765.352   5921008.247
10 0 59774  45462.000000  0      42949.783  -4237082.087   5421289.484
10 0 59774  45582.000000  0    -184786.486  -4902523.839   4826208.665
10 0 59774  45702.000000  0    -420155.746  -5478253.235   4146200.149
10 0 59774  45822.000000  0    -657383.650  -5954095.270   3393205.298
10 0 59774  45942.000000  0    -890499.821  -6321726.855   2580463.827
10 0 59774  46062.000000  0   -1113477.394  -6574831.713   1722279.789
10 0 59774  46182.000000  0   -1320376.480  -6709218.168    833766.900
10 0 59774  46302.000000  0   -1505489.713  -6722894.829    -69425.689
10 0 59774  46422.000000  0   -1663482.342  -6616100.015   -971398.260
10 0 59774  46542.000000  0   -1789524.919  -6391286.584  -1856289.130
10 0 59774  46662.000000  0   -1879415.703  -6053062.933  -2708561.177
10 0 59774  46782.000000  0   -1929689.881  -5608091.421  -3513280.835
10 0 59774  46902.000000  0   -1937712.408  -5064946.287  -4256382.948
10 0 59774  47022.000000  0   -1901752.116  -4433936.246  -4924915.026
10 0 59774  47142.000000  0   -1821036.158  -3726898.047  -5507257.232
10 0 59774  47262.000000  0   -1695784.048  -2956966.081  -5993316.092
10 0 59774  47382.000000  0   -1527220.537  -2138322.339  -6374689.777
10 0 59774  47502.000000  0   -1317567.264  -1285931.824  -6644801.695
10 0 59774  47622.000000  0   -1070014.481   -415270.017  -6799002.474
10 0 59774  47742.000000  0    -788673.258    457953.971  -6834640.988
10 0 59774  47862.000000  0    -478507.632   1318073.902  -6751104.353
10 0 59774  47982.000000  0    -145249.208   2149739.990  -6549827.072
10 0 59774  48102.000000  0     204704.677   2938185.890  -6234270.182
10 0 59774  48222.000000  0     564410.313   3669487.672  -5809869.729
10 0 59774  48342.000000  0     926511.291   4330808.578  -5283951.615
10 0 59774  48462.000000  0    1283383.750   4910626.211  -4665616.801
10 0 59774  48582.000000  0    1627292.330   5398940.170  -3965595.308
10 0 59774  48702.000000  0    1950553.441   5787453.391  -3196069.010
10 0 59774  48822.000000  0    2245702.087   6069723.827  -2370467.100
10 0 59774  48942.000000  0    2505659.279   6241283.499  -1503235.565
10 0 59774  49062.000000  0    2723895.551   6299720.168   -609583.500
10 0 59774  49182.000000  0    2894586.066   6244717.847    294788.364
10 0 59774  49302.000000  0    3012753.201   6078054.972   1193970.049
10 0 59774  49422.000000  0    3074393.082   5803561.335   2072129.848
10 0 59774  49542.000000  0    3076582.677   5427033.903   2913801.514
10 0 59774  49662.000000  0    3017565.002   4956113.060   3704164.603
10 0 59774  49782.000000  0    2896810.647   4400123.164   4429311.525
10 0 59774  49902.000000  0    2715051.832   3769880.666   5076497.755
10 0 59774  50022.000000  0    2474288.189   3077473.581   5634364.992
10 0 59774  50142.000000  0    2177768.862   2336022.877   6093135.593
10 0 59774  50262.000000  0    1829949.490   1559429.035   6444780.020
10 0 59774  50382.000000  0    1436423.314    762106.448   6683151.878
10 0 59774  50502.000000  0    1003829.193    -41285.782   6804087.938
10 0 59774  50622.000000  0     539739.013   -836111.920   6805476.934
10 0 59774  50742.000000  0      52524.860  -1608026.603   6687295.344
10 0 59774  50862.000000  0    -448792.254  -2343233.664   6451607.366
10 0 59774  50982.000000  0    -954709.201  -3028733.231   6102530.230
10 0 59774  51102.000000  0   -1455418.591  -3652552.058   5646164.847
10 0 59774  51222.000000  0   -1940996.581  -4203954.624   5090496.206
10 0 59774  51342.000000  0   -2401600.112  -4673633.582   4445261.889
10 0 59774  51462.000000  0   -2827668.772  -5053874.917   3721787.060
10 0 59774  51582.000000  0   -3210125.052  -5338692.632   2932787.258
10 0 59774  51702.000000  0   -3540567.750  -5523928.740   2092144.060
10 0 59774  51822.000000  0   -3811455.509  -5607318.119   1214658.368
10 0 59774  51942.000000  0   -4016276.268  -5588515.785    315784.336
10 0 59774  52062.000000  0   -4149697.694  -5469085.356   -588650.146
10 0 59774  52182.000000  0   -4207694.838  -5252449.107  -1482731.294
10 0 59774  52302.000000  0   -4187650.917  -4943799.510  -2350748.875
10 0 59774  52422.000000  0   -4088428.877  -4549975.101  -3177479.619
10 0 59774  52542.000000  0   -3910412.096  -4079305.025  -3948458.167
10 0 59774  52662.000000  0   -3655514.129  -3541427.365  -4650230.070
10 0 59774  52782.000000  0   -3327158.328  -2947086.068  -5270583.104
10 0 59774  52902.000000  0   -2930227.901  -2307910.961  -5798752.681
10 0 59774  53022.000000  0   -2470988.706  -1636187.043  -6225598.907
10 0 59774  53142.000000  0   -1956985.921   -944617.044  -6543754.433
99
